OBJECT_NAME,OBJECT_ID,EPOCH,MEAN_MOTION,ECCENTRICITY,INCLINATION,RA_OF_ASC_NODE,ARG_OF_PERICENTER,MEAN_ANOMALY,EPHEMERIS_TYPE,CLASSIFICATION_TYPE,NORAD_CAT_ID,ELEMENT_SET_NO,REV_AT_EPOCH,BSTAR,MEAN_MOTION_DOT,MEAN_MOTION_DDOT
STARLINK-32681,2025-003V,2026-07-11T06:53:12.136992,15.27596268,.00004471,42.9961,292.4110,126.0822,234.0071,0,U,62506,999,8578,.5431549E-3,.14722E-3,0
STARLINK-32679,2025-003W,2026-07-11T09:06:44.055648,15.27584299,.00028028,43.0067,310.8028,275.8072,84.2461,0,U,62507,999,8558,.40529749E-3,.10909E-3,0
STARLINK-32749,2025-003X,2026-07-11T19:02:55.236768,15.27601301,.00028823,43.0047,307.9266,281.3284,78.7244,0,U,62508,999,8553,.56852528E-3,.15426E-3,0
STARLINK-32744,2025-003Y,2026-07-11T15:12:17.169984,15.27576061,.00041132,43.0091,309.3114,290.0065,70.0343,0,U,62509,999,8550,.48146666E-3,.1301E-3,0
STARLINK-32701,2025-003Z,2026-07-11T09:58:20.492544,15.27585550,.00021192,43.0005,310.2474,282.1214,77.9401,0,U,62510,999,8547,.5246613E-3,.14206E-3,0
STARLINK-11452 [DTC],2025-004A,2026-07-11T23:05:00.308832,15.70917093,.0001662,42.9984,41.6343,280.2973,79.7707,0,U,62511,999,8767,.82333E-3,.106911E-2,0
STARLINK-11443 [DTC],2025-004B,2026-07-12T01:22:26.074272,15.70841909,.0001868,42.9980,41.5072,264.3279,95.7376,0,U,62512,999,8676,.9061E-3,.117485E-2,0
STARLINK-11440 [DTC],2025-004C,2026-07-12T00:59:30.619104,15.70882132,.0001889,43.0004,41.3771,275.5087,84.5565,0,U,62513,999,8676,.11679E-2,.152463E-2,0
STARLINK-11514 [DTC],2025-004D,2026-07-11T21:27:05.830272,15.70989797,.000405,43.0014,41.9779,249.2520,110.7913,0,U,62514,999,8674,.15191E-2,.200555E-2,0
STARLINK-11508 [DTC],2025-004E,2026-07-11T22:49:41.418048,15.70939086,.0003165,43.0002,41.5443,252.7340,107.3182,0,U,62515,999,8675,.84729E-3,.110198E-2,0
STARLINK-11510 [DTC],2025-004F,2026-07-11T23:35:34.531584,15.70934283,.0003104,43.0029,41.7959,247.9706,112.0832,0,U,62516,999,8675,.87833E-3,.114284E-2,0
STARLINK-11512 [DTC],2025-004G,2026-07-11T23:58:20.253792,15.70845283,.0000734,42.9981,41.0335,278.2052,81.8732,0,U,62517,999,8676,.11733E-2,.15293E-2,0
STARLINK-11450 [DTC],2025-004H,2026-07-11T23:12:39.098880,15.70975298,.0002086,42.9995,41.6741,301.2493,58.8170,0,U,62518,999,8675,.1385E-2,.182256E-2,0
STARLINK-11507 [DTC],2025-004J,2026-07-11T23:20:17.136384,15.70837741,.000279,42.9987,41.7172,266.6016,93.4532,0,U,62519,999,8675,.11354E-2,.147859E-2,0
STARLINK-11482 [DTC],2025-004K,2026-07-11T22:34:25.735296,15.70945101,.0000338,43.0013,41.4560,328.5154,31.5693,0,U,62520,999,8675,.98733E-3,.128787E-2,0
STARLINK-11528 [DTC],2025-004L,2026-07-11T19:08:32.700480,15.70915597,.00018971,43.0005,42.9840,242.6335,117.4339,0,U,62521,999,8672,.78005287E-3,.101193E-2,0
STARLINK-11516 [DTC],2025-004M,2026-07-11T15:19:33.362976,15.70967618,.0002918,43.0027,43.4975,294.7907,65.2657,0,U,62522,999,8670,.11260376E-2,.147432E-2,0
STARLINK-11527 [DTC],2025-004N,2026-07-11T22:42:03.170592,15.70944982,.0003693,43.0003,41.4981,252.3305,107.7159,0,U,62523,999,8675,.1051E-2,.137294E-2,0
STARLINK-32748,2025-004P,2026-07-12T03:20:53.002176,15.27566437,.0000961,42.9965,236.8696,261.9613,98.1130,0,U,62524,999,8549,.50493E-3,.13653E-3,0
STARLINK-32777,2025-004Q,2026-07-12T04:18:14.405760,15.27578293,.0001629,43.0024,237.1720,270.8777,89.1888,0,U,62525,999,8549,.23438E-3,.6193E-4,0
STARLINK-32741,2025-004R,2026-07-12T04:02:17.358144,15.27585435,.0001526,43.0025,233.6247,272.6123,87.4554,0,U,62526,999,8553,.29821E-3,.7954E-4,0
STARLINK-32754,2025-004S,2026-07-12T03:43:03.226080,15.27623452,.0001033,42.9939,236.9784,211.3541,148.7249,0,U,62527,999,8454,.54678E-3,.14834E-3,0
STARLINK-32786,2025-004T,2026-07-12T04:29:07.538784,15.27565587,.000166,43.0003,236.3671,253.9654,106.1015,0,U,62528,999,8455,.38991E-3,.10478E-3,0
STARLINK-32789,2025-004U,2026-07-12T03:52:19.699968,15.27587030,.0001426,42.9971,237.0257,174.4333,185.6534,0,U,62529,999,8549,.42179E-3,.11365E-3,0
STARLINK-32791,2025-004V,2026-07-12T03:31:58.125792,15.27559444,.0001046,42.9971,236.9211,260.0403,100.0330,0,U,62530,999,8549,.21207E-3,.5575E-4,0
STARLINK-32785,2025-004W,2026-07-12T04:03:26.048736,15.27581723,.000099,42.9990,237.0919,196.3364,163.7456,0,U,62531,999,8549,.2294E-3,.6056E-4,0
STARLINK-11538 [DTC],2025-006A,2026-07-11T23:26:55.422240,15.70861637,.0002546,43.0000,110.3682,202.4599,157.6157,0,U,62554,999,8615,.72975E-3,.9435E-3,0
STARLINK-11534 [DTC],2025-006B,2026-07-11T23:34:33.957408,15.70847875,.0002784,42.9992,110.4052,194.4009,165.6779,0,U,62555,999,8615,.53718E-3,.69085E-3,0
STARLINK-11515 [DTC],2025-006C,2026-07-11T03:13:53.842944,15.70845941,.0001564,43.0009,116.1186,263.0566,97.0124,0,U,62556,999,8601,.80757979E-3,.104513E-2,0
STARLINK-11478 [DTC],2025-006D,2026-07-12T03:08:16.422432,15.70878777,.0003022,42.9997,109.8171,301.0818,58.9753,0,U,62557,999,8617,.11239E-2,.146584E-2,0
