STARLINK-32681          
1 62506U 25003V   26192.28694603  .00014722  00000+0  54315-3 0  9993
2 62506  42.9961 292.4110 0000447 126.0822 234.0071 15.27596268 85783
STARLINK-32679          
1 62507U 25003W   26192.37967657  .00010909  00000+0  40530-3 0  9993
2 62507  43.0067 310.8028 0002802 275.8072  84.2461 15.27584299 85580
STARLINK-32749          
1 62508U 25003X   26192.79369487  .00015426  00000+0  56853-3 0  9991
2 62508  43.0047 307.9266 0002882 281.3284  78.7244 15.27601301 85531
STARLINK-32744          
1 62509U 25003Y   26192.63353206  .00013010  00000+0  48147-3 0  9991
2 62509  43.0091 309.3114 0004113 290.0065  70.0343 15.27576061 85508
STARLINK-32701          
1 62510U 25003Z   26192.41551496  .00014206  00000+0  52466-3 0  9997
2 62510  43.0005 310.2474 0002119 282.1214  77.9401 15.27585550 85477
STARLINK-11452 [DTC]    
1 62511U 25004A   26192.96180913  .00106911  00000+0  82333-3 0  9992
2 62511  42.9984  41.6343 0001662 280.2973  79.7707 15.70917093 87677
STARLINK-11443 [DTC]    
1 62512U 25004B   26193.05724623  .00117485  00000+0  90610-3 0  9991
2 62512  42.9980  41.5072 0001868 264.3279  95.7376 15.70841909 86763
STARLINK-11440 [DTC]    
1 62513U 25004C   26193.04132661  .00152463  00000+0  11679-2 0  9998
2 62513  43.0004  41.3771 0001889 275.5087  84.5565 15.70882132 86760
STARLINK-11514 [DTC]    
1 62514U 25004D   26192.89381748  .00200555  00000+0  15191-2 0  9992
2 62514  43.0014  41.9779 0004050 249.2520 110.7913 15.70989797 86741
STARLINK-11508 [DTC]    
1 62515U 25004E   26192.95117382  .00110198  00000+0  84729-3 0  9998
2 62515  43.0002  41.5443 0003165 252.7340 107.3182 15.70939086 86755
STARLINK-11510 [DTC]    
1 62516U 25004F   26192.98303856  .00114284  00000+0  87833-3 0  9994
2 62516  43.0029  41.7959 0003104 247.9706 112.0832 15.70934283 86753
STARLINK-11512 [DTC]    
1 62517U 25004G   26192.99884553  .00152930  00000+0  11733-2 0  9999
2 62517  42.9981  41.0335 0000734 278.2052  81.8732 15.70845283 86761
STARLINK-11450 [DTC]    
1 62518U 25004H   26192.96711920  .00182256  00000+0  13850-2 0  9990
2 62518  42.9995  41.6741 0002086 301.2493  58.8170 15.70975298 86751
STARLINK-11507 [DTC]    
1 62519U 25004J   26192.97242056  .00147859  00000+0  11354-2 0  9998
2 62519  42.9987  41.7172 0002790 266.6016  93.4532 15.70837741 86756
STARLINK-11482 [DTC]    
1 62520U 25004K   26192.94057564  .00128787  00000+0  98733-3 0  9991
2 62520  43.0013  41.4560 0000338 328.5154  31.5693 15.70945101 86756
STARLINK-11528 [DTC]    
1 62521U 25004L   26192.79760070  .00101193  00000+0  78005-3 0  9990
2 62521  43.0005  42.9840 0001897 242.6335 117.4339 15.70915597 86727
STARLINK-11516 [DTC]    
1 62522U 25004M   26192.63858059  .00147432  00000+0  11260-2 0  9994
2 62522  43.0027  43.4975 0002918 294.7907  65.2657 15.70967618 86707
STARLINK-11527 [DTC]    
1 62523U 25004N   26192.94587003  .00137294  00000+0  10510-2 0  9999
2 62523  43.0003  41.4981 0003693 252.3305 107.7159 15.70944982 86753
STARLINK-32748          
1 62524U 25004P   26193.13950234  .00013653  00000+0  50493-3 0  9999
2 62524  42.9965 236.8696 0000961 261.9613  98.1130 15.27566437 85494
STARLINK-32777          
1 62525U 25004Q   26193.17933340  .00006193  00000+0  23438-3 0  9993
2 62525  43.0024 237.1720 0001629 270.8777  89.1888 15.27578293 85490
STARLINK-32741          
1 62526U 25004R   26193.16825646  .00007954  00000+0  29821-3 0  9990
2 62526  43.0025 233.6247 0001526 272.6123  87.4554 15.27585435 85530
STARLINK-32754          
1 62527U 25004S   26193.15489845  .00014834  00000+0  54678-3 0  9990
2 62527  42.9939 236.9784 0001033 211.3541 148.7249 15.27623452 84546
STARLINK-32786          
1 62528U 25004T   26193.18689281  .00010478  00000+0  38991-3 0  9990
2 62528  43.0003 236.3671 0001660 253.9654 106.1015 15.27565587 84557
STARLINK-32789          
1 62529U 25004U   26193.16133912  .00011365  00000+0  42179-3 0  9993
2 62529  42.9971 237.0257 0001426 174.4333 185.6534 15.27587030 85498
STARLINK-32791          
1 62530U 25004V   26193.14720053  .00005575  00000+0  21207-3 0  9996
2 62530  42.9971 236.9211 0001046 260.0403 100.0330 15.27559444 85499
STARLINK-32785          
1 62531U 25004W   26193.16905149  .00006056  00000+0  22940-3 0  9990
2 62531  42.9990 237.0919 0000990 196.3364 163.7456 15.27581723 85492
STARLINK-11538 [DTC]    
1 62554U 25006A   26192.97703035  .00094350  00000+0  72975-3 0  9992
2 62554  43.0000 110.3682 0002546 202.4599 157.6157 15.70861637 86156
STARLINK-11534 [DTC]    
1 62555U 25006B   26192.98233747  .00069085  00000+0  53718-3 0  9993
2 62555  42.9992 110.4052 0002784 194.4009 165.6779 15.70847875 86154
STARLINK-11515 [DTC]    
1 62556U 25006C   26192.13465096  .00104513  00000+0  80758-3 0  9995
2 62556  43.0009 116.1186 0001564 263.0566  97.0124 15.70845941 86012
STARLINK-11478 [DTC]    
1 62557U 25006D   26193.13074563  .00146584  00000+0  11239-2 0  9993
2 62557  42.9997 109.8171 0003022 301.0818  58.9753 15.70878777 86178
